*******************************************************************************
Ephemeris / WWW_USER Thu May 23 08:25:30 2024 Pasadena, USA      / Horizons    
*******************************************************************************
Target body name: (2015 BP519)                    {source: JPL#11}
Center body name: Earth (399)                     {source: DE441}
Center-site name: Gemini South Obs., Cerro Pachon
*******************************************************************************
Start time      : A.D. 2018-Oct-02 22:53:00.0000 UT      
Stop  time      : A.D. 2018-Oct-03 10:10:00.0000 UT      
Step-size       : 1 minutes
*******************************************************************************
Target pole/equ : undefined
Target radii    : undefined                                                    
Center geodetic : 289.2634, -30.2406227, 2.71233  {E-lon(deg),Lat(deg),Alt(km)}
Center cylindric: 289.2634,5517.21435,-3194.81213 {E-lon(deg),Dxy(km),Dz(km)}
Center pole/equ : ITRF93                          {East-longitude positive}
Center radii    : 6378.137, 6378.137, 6356.752 km {Equator_a, b, pole_c}       
Target primary  : Sun
Vis. interferer : MOON (R_eq= 1737.400) km        {source: DE441}
Rel. light bend : Sun                             {source: DE441}
Rel. lght bnd GM: 1.3271E+11 km^3/s^2                                          
Small-body perts: Yes                             {source: SB441-N16}
Atmos refraction: NO (AIRLESS)
RA format       : HMS
Time format     : CAL 
Calendar mode   : Mixed Julian/Gregorian
RTS-only print  : NO       
EOP file        : eop.240522.p240815                                           
EOP coverage    : DATA-BASED 1962-JAN-20 TO 2024-MAY-22. PREDICTS-> 2024-AUG-14
Units conversion: 1 au= 149597870.700 km, c= 299792.458 km/s, 1 day= 86400.0 s 
Table cut-offs 1: Elevation (-90.0deg=NO ),Airmass (>38.000=NO), Daylight (YES)
Table cut-offs 2: Solar elongation (  0.0,180.0=NO ),Local Hour Angle( 0.0=NO )
Table cut-offs 3: RA/DEC angular rate (     0.0=NO )                           
*******************************************************************************
Initial IAU76/J2000 heliocentric ecliptic osculating elements (au, days, deg.):
  EPOCH=  2459185.5 ! 2020-Dec-02.00 (TDB)         Residual RMS= .076636       
   EC= .9196800569382362   QR= 35.27062259520413   TP= 2473034.2681888649      
   OM= 135.0361763364557   W=  348.1354702472351   IN= 54.13300168900849       
  Equivalent ICRF heliocentric cartesian coordinates (au, au/d):
   X= 1.527332710437156E+01  Y= 4.057000090505051E+01  Z=-2.695001507835700E+01
  VX=-2.654302427537234E-03 VY= 4.512065776218028E-05 VZ= 1.968031006040699E-03
Asteroid physical parameters (km, seconds, rotational period in hours):        
   GM= n.a.                RAD= n.a.               ROTPER= n.a.                
   H= 4.34                 G= .150                 B-V= n.a.                   
                           ALBEDO= n.a.            STYP= n.a.                  
*******************************************************************************
 Date__(UT)__HR:MN     R.A._________(ICRF)_________DEC
******************************************************
$$SOE
 2018-Oct-03 02:59     04 31 39.561577 -33 14 58.01895
 2018-Oct-03 03:00     04 31 39.560195 -33 14 58.05158
 2018-Oct-03 03:01     04 31 39.558813 -33 14 58.08420
 2018-Oct-03 03:02     04 31 39.557431 -33 14 58.11682
 2018-Oct-03 03:03     04 31 39.556049 -33 14 58.14945
 2018-Oct-03 03:04     04 31 39.554666 -33 14 58.18207
 2018-Oct-03 03:05     04 31 39.553283 -33 14 58.21469
 2018-Oct-03 03:06     04 31 39.551900 -33 14 58.24731
 2018-Oct-03 03:07     04 31 39.550516 -33 14 58.27993
 2018-Oct-03 03:08     04 31 39.549133 -33 14 58.31256
 2018-Oct-03 03:09     04 31 39.547749 -33 14 58.34518
 2018-Oct-03 03:10     04 31 39.546364 -33 14 58.37780
 2018-Oct-03 03:11     04 31 39.544980 -33 14 58.41042
 2018-Oct-03 03:12     04 31 39.543595 -33 14 58.44304
 2018-Oct-03 03:13     04 31 39.542210 -33 14 58.47565
 2018-Oct-03 03:14     04 31 39.540825 -33 14 58.50827
 2018-Oct-03 03:15     04 31 39.539439 -33 14 58.54089
 2018-Oct-03 03:16     04 31 39.538054 -33 14 58.57351
 2018-Oct-03 03:17     04 31 39.536668 -33 14 58.60612
 2018-Oct-03 03:18     04 31 39.535281 -33 14 58.63874
 2018-Oct-03 03:19     04 31 39.533895 -33 14 58.67136
 2018-Oct-03 03:20     04 31 39.532508 -33 14 58.70397
 2018-Oct-03 03:21     04 31 39.531121 -33 14 58.73659
 2018-Oct-03 03:22     04 31 39.529734 -33 14 58.76920
 2018-Oct-03 03:23     04 31 39.528346 -33 14 58.80181
 2018-Oct-03 03:24     04 31 39.526958 -33 14 58.83443
 2018-Oct-03 03:25     04 31 39.525570 -33 14 58.86704
 2018-Oct-03 03:26     04 31 39.524182 -33 14 58.89965
 2018-Oct-03 03:27     04 31 39.522793 -33 14 58.93226
 2018-Oct-03 03:28     04 31 39.521404 -33 14 58.96488
 2018-Oct-03 03:29     04 31 39.520015 -33 14 58.99749
 2018-Oct-03 03:30     04 31 39.518626 -33 14 59.03010
 2018-Oct-03 03:31     04 31 39.517236 -33 14 59.06270
 2018-Oct-03 03:32     04 31 39.515846 -33 14 59.09531
 2018-Oct-03 03:33     04 31 39.514456 -33 14 59.12792
 2018-Oct-03 03:34     04 31 39.513066 -33 14 59.16053
 2018-Oct-03 03:35     04 31 39.511675 -33 14 59.19314
 2018-Oct-03 03:36     04 31 39.510284 -33 14 59.22574
 2018-Oct-03 03:37     04 31 39.508893 -33 14 59.25835
 2018-Oct-03 03:38     04 31 39.507502 -33 14 59.29095
 2018-Oct-03 03:39     04 31 39.506110 -33 14 59.32356
 2018-Oct-03 03:40     04 31 39.504718 -33 14 59.35616
 2018-Oct-03 03:41     04 31 39.503326 -33 14 59.38876
 2018-Oct-03 03:42     04 31 39.501934 -33 14 59.42137
 2018-Oct-03 03:43     04 31 39.500541 -33 14 59.45397
 2018-Oct-03 03:44     04 31 39.499148 -33 14 59.48657
 2018-Oct-03 03:45     04 31 39.497755 -33 14 59.51917
 2018-Oct-03 03:46     04 31 39.496361 -33 14 59.55177
 2018-Oct-03 03:47     04 31 39.494968 -33 14 59.58437
 2018-Oct-03 03:48     04 31 39.493574 -33 14 59.61697
 2018-Oct-03 03:49     04 31 39.492180 -33 14 59.64956
 2018-Oct-03 03:50     04 31 39.490785 -33 14 59.68216
 2018-Oct-03 03:51     04 31 39.489391 -33 14 59.71476
 2018-Oct-03 03:52     04 31 39.487996 -33 14 59.74735
 2018-Oct-03 03:53     04 31 39.486601 -33 14 59.77995
 2018-Oct-03 03:54     04 31 39.485205 -33 14 59.81254
 2018-Oct-03 03:55     04 31 39.483810 -33 14 59.84513
 2018-Oct-03 03:56     04 31 39.482414 -33 14 59.87773
 2018-Oct-03 03:57     04 31 39.481018 -33 14 59.91032
 2018-Oct-03 03:58     04 31 39.479621 -33 14 59.94291
 2018-Oct-03 03:59     04 31 39.478225 -33 14 59.97550
 2018-Oct-03 04:00     04 31 39.476828 -33 15 00.00809
 2018-Oct-03 04:01     04 31 39.475431 -33 15 00.04068
 2018-Oct-03 04:02     04 31 39.474033 -33 15 00.07327
 2018-Oct-03 04:03     04 31 39.472636 -33 15 00.10585
 2018-Oct-03 04:04     04 31 39.471238 -33 15 00.13844
 2018-Oct-03 04:05     04 31 39.469840 -33 15 00.17103
 2018-Oct-03 04:06     04 31 39.468441 -33 15 00.20361
 2018-Oct-03 04:07     04 31 39.467043 -33 15 00.23619
 2018-Oct-03 04:08     04 31 39.465644 -33 15 00.26878
 2018-Oct-03 04:09     04 31 39.464245 -33 15 00.30136
 2018-Oct-03 04:10     04 31 39.462846 -33 15 00.33394
 2018-Oct-03 04:11     04 31 39.461446 -33 15 00.36652
 2018-Oct-03 04:12     04 31 39.460046 -33 15 00.39910
 2018-Oct-03 04:13     04 31 39.458646 -33 15 00.43168
 2018-Oct-03 04:14     04 31 39.457246 -33 15 00.46426
 2018-Oct-03 04:15     04 31 39.455846 -33 15 00.49684
 2018-Oct-03 04:16     04 31 39.454445 -33 15 00.52941
 2018-Oct-03 04:17     04 31 39.453044 -33 15 00.56199
 2018-Oct-03 04:18     04 31 39.451643 -33 15 00.59456
 2018-Oct-03 04:19     04 31 39.450241 -33 15 00.62714
 2018-Oct-03 04:20     04 31 39.448840 -33 15 00.65971
 2018-Oct-03 04:21     04 31 39.447438 -33 15 00.69228
 2018-Oct-03 04:22     04 31 39.446036 -33 15 00.72485
 2018-Oct-03 04:23     04 31 39.444633 -33 15 00.75742
 2018-Oct-03 04:24     04 31 39.443231 -33 15 00.78999
 2018-Oct-03 04:25     04 31 39.441828 -33 15 00.82256
 2018-Oct-03 04:26     04 31 39.440425 -33 15 00.85513
 2018-Oct-03 04:27     04 31 39.439021 -33 15 00.88769
 2018-Oct-03 04:28     04 31 39.437618 -33 15 00.92026
 2018-Oct-03 04:29     04 31 39.436214 -33 15 00.95283
 2018-Oct-03 04:30     04 31 39.434810 -33 15 00.98539
 2018-Oct-03 04:31     04 31 39.433406 -33 15 01.01795
 2018-Oct-03 04:32     04 31 39.432001 -33 15 01.05051
 2018-Oct-03 04:33     04 31 39.430596 -33 15 01.08307
 2018-Oct-03 04:34     04 31 39.429191 -33 15 01.11563
 2018-Oct-03 04:35     04 31 39.427786 -33 15 01.14819
 2018-Oct-03 04:36     04 31 39.426381 -33 15 01.18075
 2018-Oct-03 04:37     04 31 39.424975 -33 15 01.21331
 2018-Oct-03 04:38     04 31 39.423569 -33 15 01.24586
 2018-Oct-03 04:39     04 31 39.422163 -33 15 01.27842
 2018-Oct-03 04:40     04 31 39.420757 -33 15 01.31097
 2018-Oct-03 04:41     04 31 39.419350 -33 15 01.34352
 2018-Oct-03 04:42     04 31 39.417944 -33 15 01.37608
 2018-Oct-03 04:43     04 31 39.416537 -33 15 01.40863
 2018-Oct-03 04:44     04 31 39.415129 -33 15 01.44118
 2018-Oct-03 04:45     04 31 39.413722 -33 15 01.47373
 2018-Oct-03 04:46     04 31 39.412314 -33 15 01.50627
 2018-Oct-03 04:47     04 31 39.410906 -33 15 01.53882
 2018-Oct-03 04:48     04 31 39.409498 -33 15 01.57137
 2018-Oct-03 04:49     04 31 39.408090 -33 15 01.60391
 2018-Oct-03 04:50     04 31 39.406681 -33 15 01.63645
 2018-Oct-03 04:51     04 31 39.405273 -33 15 01.66900
 2018-Oct-03 04:52     04 31 39.403864 -33 15 01.70154
 2018-Oct-03 04:53     04 31 39.402455 -33 15 01.73408
 2018-Oct-03 04:54     04 31 39.401045 -33 15 01.76662
 2018-Oct-03 04:55     04 31 39.399635 -33 15 01.79916
 2018-Oct-03 04:56     04 31 39.398226 -33 15 01.83169
 2018-Oct-03 04:57     04 31 39.396815 -33 15 01.86423
 2018-Oct-03 04:58     04 31 39.395405 -33 15 01.89676
 2018-Oct-03 04:59     04 31 39.393995 -33 15 01.92930
 2018-Oct-03 05:00     04 31 39.392584 -33 15 01.96183
 2018-Oct-03 05:01     04 31 39.391173 -33 15 01.99436
